<?xml version="1.0" encoding="UTF-8"?>
<kml xmlns="http://www.opengis.net/kml/2.2">
  <Document>
    <name>newgenhomes_tarihal01_onmaps_modified</name>
    <Style id="icon-1899-DB4436-normal">
      <IconStyle>
        <color>ff3644db</color>
        <scale>1</scale>
        <Icon>
          <href>https://www.gstatic.com/mapspro/images/stock/503-wht-blank_maps.png</href>
        </Icon>
        <hotSpot x="32" xunits="pixels" y="64" yunits="insetPixels"/>
      </IconStyle>
      <LabelStyle>
        <scale>0</scale>
      </LabelStyle>
    </Style>
    <Style id="icon-1899-DB4436-highlight">
      <IconStyle>
        <color>ff3644db</color>
        <scale>1</scale>
        <Icon>
          <href>https://www.gstatic.com/mapspro/images/stock/503-wht-blank_maps.png</href>
        </Icon>
        <hotSpot x="32" xunits="pixels" y="64" yunits="insetPixels"/>
      </IconStyle>
      <LabelStyle>
        <scale>1</scale>
      </LabelStyle>
    </Style>
    <StyleMap id="icon-1899-DB4436">
      <Pair>
        <key>normal</key>
        <styleUrl>#icon-1899-DB4436-normal</styleUrl>
      </Pair>
      <Pair>
        <key>highlight</key>
        <styleUrl>#icon-1899-DB4436-highlight</styleUrl>
      </Pair>
    </StyleMap>
    <Style id="poly-FF0000-1000-0-normal">
      <LineStyle>
        <color>ff0000ff</color>
        <width>0</width>
      </LineStyle>
      <PolyStyle>
        <color>000000ff</color>
        <fill>1</fill>
        <outline>1</outline>
      </PolyStyle>
    </Style>
    <Style id="poly-FF0000-1000-0-highlight">
      <LineStyle>
        <color>ff0000ff</color>
        <width>0</width>
      </LineStyle>
      <PolyStyle>
        <color>000000ff</color>
        <fill>1</fill>
        <outline>1</outline>
      </PolyStyle>
    </Style>
    <StyleMap id="poly-FF0000-1000-0">
      <Pair>
        <key>normal</key>
        <styleUrl>#poly-FF0000-1000-0-normal</styleUrl>
      </Pair>
      <Pair>
        <key>highlight</key>
        <styleUrl>#poly-FF0000-1000-0-highlight</styleUrl>
      </Pair>
    </StyleMap>
    <Placemark>
      <name>1</name>
      <description><![CDATA[description: <br>fid: 2<br>Layer: Layer 12<br>SubClasses: AcDbEntity:AcDbHatch<br>EntityHandle: 88<br>Text: SOLID]]></description>
      <styleUrl>#poly-FF0000-1000-0</styleUrl>
      <ExtendedData>
        <Data name="description">
          <value/>
        </Data>
        <Data name="fid">
          <value>2</value>
        </Data>
        <Data name="Layer">
          <value>Layer 12</value>
        </Data>
        <Data name="SubClasses">
          <value>AcDbEntity:AcDbHatch</value>
        </Data>
        <Data name="EntityHandle">
          <value>88</value>
        </Data>
        <Data name="Text">
          <value>SOLID</value>
        </Data>
      </ExtendedData>
      <Polygon>
        <outerBoundaryIs>
          <LinearRing>
            <tessellate>1</tessellate>
            <coordinates>
              75.045422,15.353529,0
              75.045239,15.35348,0
              75.045286,15.353392,0
              75.045448,15.353435,0
              75.045422,15.353529,0
            </coordinates>
          </LinearRing>
        </outerBoundaryIs>
      </Polygon>
    </Placemark>
    <Placemark>
      <name>2</name>
      <description><![CDATA[description: <br>fid: 1<br>Layer: Layer 12<br>SubClasses: AcDbEntity:AcDbHatch<br>EntityHandle: 86<br>Text: SOLID]]></description>
      <styleUrl>#poly-FF0000-1000-0</styleUrl>
      <ExtendedData>
        <Data name="description">
          <value/>
        </Data>
        <Data name="fid">
          <value>1</value>
        </Data>
        <Data name="Layer">
          <value>Layer 12</value>
        </Data>
        <Data name="SubClasses">
          <value>AcDbEntity:AcDbHatch</value>
        </Data>
        <Data name="EntityHandle">
          <value>86</value>
        </Data>
        <Data name="Text">
          <value>SOLID</value>
        </Data>
      </ExtendedData>
      <Polygon>
        <outerBoundaryIs>
          <LinearRing>
            <tessellate>1</tessellate>
            <coordinates>
              75.04547,15.353356,0
              75.045448,15.353435,0
              75.045286,15.353392,0
              75.045328,15.353315,0
              75.04547,15.353356,0
            </coordinates>
          </LinearRing>
        </outerBoundaryIs>
      </Polygon>
    </Placemark>
    <Placemark>
      <name>3</name>
      <description><![CDATA[description: <br>fid: 3<br>Layer: Layer 12<br>SubClasses: AcDbEntity:AcDbHatch<br>EntityHandle: 8A<br>Text: SOLID]]></description>
      <styleUrl>#poly-FF0000-1000-0</styleUrl>
      <ExtendedData>
        <Data name="description">
          <value/>
        </Data>
        <Data name="fid">
          <value>3</value>
        </Data>
        <Data name="Layer">
          <value>Layer 12</value>
        </Data>
        <Data name="SubClasses">
          <value>AcDbEntity:AcDbHatch</value>
        </Data>
        <Data name="EntityHandle">
          <value>8A</value>
        </Data>
        <Data name="Text">
          <value>SOLID</value>
        </Data>
      </ExtendedData>
      <Polygon>
        <outerBoundaryIs>
          <LinearRing>
            <tessellate>1</tessellate>
            <coordinates>
              75.045609,15.353395,0
              75.04556,15.353567,0
              75.045422,15.353529,0
              75.04547,15.353356,0
              75.045609,15.353395,0
            </coordinates>
          </LinearRing>
        </outerBoundaryIs>
      </Polygon>
    </Placemark>
    <Placemark>
      <name>4</name>
      <description><![CDATA[description: <br>fid: 4<br>Layer: Layer 12<br>SubClasses: AcDbEntity:AcDbHatch<br>EntityHandle: 8C<br>Text: SOLID]]></description>
      <styleUrl>#poly-FF0000-1000-0</styleUrl>
      <ExtendedData>
        <Data name="description">
          <value/>
        </Data>
        <Data name="fid">
          <value>4</value>
        </Data>
        <Data name="Layer">
          <value>Layer 12</value>
        </Data>
        <Data name="SubClasses">
          <value>AcDbEntity:AcDbHatch</value>
        </Data>
        <Data name="EntityHandle">
          <value>8C</value>
        </Data>
        <Data name="Text">
          <value>SOLID</value>
        </Data>
      </ExtendedData>
      <Polygon>
        <outerBoundaryIs>
          <LinearRing>
            <tessellate>1</tessellate>
            <coordinates>
              75.045781,15.353625,0
              75.045644,15.353589,0
              75.045691,15.353416,0
              75.045827,15.353454,0
              75.045781,15.353625,0
            </coordinates>
          </LinearRing>
        </outerBoundaryIs>
      </Polygon>
    </Placemark>
    <Placemark>
      <name>5</name>
      <description><![CDATA[description: <br>fid: 5<br>Layer: Layer 12<br>SubClasses: AcDbEntity:AcDbHatch<br>EntityHandle: 8E<br>Text: SOLID]]></description>
      <styleUrl>#poly-FF0000-1000-0</styleUrl>
      <ExtendedData>
        <Data name="description">
          <value/>
        </Data>
        <Data name="fid">
          <value>5</value>
        </Data>
        <Data name="Layer">
          <value>Layer 12</value>
        </Data>
        <Data name="SubClasses">
          <value>AcDbEntity:AcDbHatch</value>
        </Data>
        <Data name="EntityHandle">
          <value>8E</value>
        </Data>
        <Data name="Text">
          <value>SOLID</value>
        </Data>
      </ExtendedData>
      <Polygon>
        <outerBoundaryIs>
          <LinearRing>
            <tessellate>1</tessellate>
            <coordinates>
              75.046566,15.353834,0
              75.04643,15.353798,0
              75.046456,15.35371,0
              75.046593,15.353748,0
              75.046566,15.353834,0
            </coordinates>
          </LinearRing>
        </outerBoundaryIs>
      </Polygon>
    </Placemark>
    <Placemark>
      <name>6</name>
      <description><![CDATA[description: <br>fid: 6<br>Layer: Layer 12<br>SubClasses: AcDbEntity:AcDbHatch<br>EntityHandle: 90<br>Text: SOLID]]></description>
      <styleUrl>#poly-FF0000-1000-0</styleUrl>
      <ExtendedData>
        <Data name="description">
          <value/>
        </Data>
        <Data name="fid">
          <value>6</value>
        </Data>
        <Data name="Layer">
          <value>Layer 12</value>
        </Data>
        <Data name="SubClasses">
          <value>AcDbEntity:AcDbHatch</value>
        </Data>
        <Data name="EntityHandle">
          <value>90</value>
        </Data>
        <Data name="Text">
          <value>SOLID</value>
        </Data>
      </ExtendedData>
      <Polygon>
        <outerBoundaryIs>
          <LinearRing>
            <tessellate>1</tessellate>
            <coordinates>
              75.046617,15.353669,0
              75.046593,15.353748,0
              75.046456,15.35371,0
              75.046479,15.353633,0
              75.046617,15.353669,0
            </coordinates>
          </LinearRing>
        </outerBoundaryIs>
      </Polygon>
    </Placemark>
    <Placemark>
      <name>7</name>
      <description><![CDATA[description: <br>fid: 7<br>Layer: Layer 12<br>SubClasses: AcDbEntity:AcDbHatch<br>EntityHandle: 92<br>Text: SOLID]]></description>
      <styleUrl>#poly-FF0000-1000-0</styleUrl>
      <ExtendedData>
        <Data name="description">
          <value/>
        </Data>
        <Data name="fid">
          <value>7</value>
        </Data>
        <Data name="Layer">
          <value>Layer 12</value>
        </Data>
        <Data name="SubClasses">
          <value>AcDbEntity:AcDbHatch</value>
        </Data>
        <Data name="EntityHandle">
          <value>92</value>
        </Data>
        <Data name="Text">
          <value>SOLID</value>
        </Data>
      </ExtendedData>
      <Polygon>
        <outerBoundaryIs>
          <LinearRing>
            <tessellate>1</tessellate>
            <coordinates>
              75.046698,15.35369,0
              75.046837,15.353728,0
              75.046815,15.353805,0
              75.046676,15.353767,0
              75.046698,15.35369,0
            </coordinates>
          </LinearRing>
        </outerBoundaryIs>
      </Polygon>
    </Placemark>
    <Placemark>
      <name>8</name>
      <description><![CDATA[description: <br>fid: 8<br>Layer: Layer 12<br>SubClasses: AcDbEntity:AcDbHatch<br>EntityHandle: 94<br>Text: SOLID]]></description>
      <styleUrl>#poly-FF0000-1000-0</styleUrl>
      <ExtendedData>
        <Data name="description">
          <value/>
        </Data>
        <Data name="fid">
          <value>8</value>
        </Data>
        <Data name="Layer">
          <value>Layer 12</value>
        </Data>
        <Data name="SubClasses">
          <value>AcDbEntity:AcDbHatch</value>
        </Data>
        <Data name="EntityHandle">
          <value>94</value>
        </Data>
        <Data name="Text">
          <value>SOLID</value>
        </Data>
      </ExtendedData>
      <Polygon>
        <outerBoundaryIs>
          <LinearRing>
            <tessellate>1</tessellate>
            <coordinates>
              75.046789,15.353895,0
              75.046651,15.353858,0
              75.046676,15.353767,0
              75.046815,15.353805,0
              75.046789,15.353895,0
            </coordinates>
          </LinearRing>
        </outerBoundaryIs>
      </Polygon>
    </Placemark>
    <Placemark>
      <name>9</name>
      <description><![CDATA[description: <br>fid: 9<br>Layer: Layer 12<br>SubClasses: AcDbEntity:AcDbHatch<br>EntityHandle: 96<br>Text: SOLID]]></description>
      <styleUrl>#poly-FF0000-1000-0</styleUrl>
      <ExtendedData>
        <Data name="description">
          <value/>
        </Data>
        <Data name="fid">
          <value>9</value>
        </Data>
        <Data name="Layer">
          <value>Layer 12</value>
        </Data>
        <Data name="SubClasses">
          <value>AcDbEntity:AcDbHatch</value>
        </Data>
        <Data name="EntityHandle">
          <value>96</value>
        </Data>
        <Data name="Text">
          <value>SOLID</value>
        </Data>
      </ExtendedData>
      <Polygon>
        <outerBoundaryIs>
          <LinearRing>
            <tessellate>1</tessellate>
            <coordinates>
              75.04695,15.353842,0
              75.046924,15.353931,0
              75.046789,15.353895,0
              75.046815,15.353805,0
              75.04695,15.353842,0
            </coordinates>
          </LinearRing>
        </outerBoundaryIs>
      </Polygon>
    </Placemark>
    <Placemark>
      <name>10</name>
      <description><![CDATA[description: <br>fid: 10<br>Layer: Layer 12<br>SubClasses: AcDbEntity:AcDbHatch<br>EntityHandle: 98<br>Text: SOLID]]></description>
      <styleUrl>#poly-FF0000-1000-0</styleUrl>
      <ExtendedData>
        <Data name="description">
          <value/>
        </Data>
        <Data name="fid">
          <value>10</value>
        </Data>
        <Data name="Layer">
          <value>Layer 12</value>
        </Data>
        <Data name="SubClasses">
          <value>AcDbEntity:AcDbHatch</value>
        </Data>
        <Data name="EntityHandle">
          <value>98</value>
        </Data>
        <Data name="Text">
          <value>SOLID</value>
        </Data>
      </ExtendedData>
      <Polygon>
        <outerBoundaryIs>
          <LinearRing>
            <tessellate>1</tessellate>
            <coordinates>
              75.046972,15.353765,0
              75.04695,15.353842,0
              75.046815,15.353805,0
              75.046837,15.353728,0
              75.046972,15.353765,0
            </coordinates>
          </LinearRing>
        </outerBoundaryIs>
      </Polygon>
    </Placemark>
    <Placemark>
      <name>11</name>
      <description><![CDATA[description: <br>fid: 11<br>Layer: Layer 12<br>SubClasses: AcDbEntity:AcDbHatch<br>EntityHandle: 9A<br>Text: SOLID]]></description>
      <styleUrl>#poly-FF0000-1000-0</styleUrl>
      <ExtendedData>
        <Data name="description">
          <value/>
        </Data>
        <Data name="fid">
          <value>11</value>
        </Data>
        <Data name="Layer">
          <value>Layer 12</value>
        </Data>
        <Data name="SubClasses">
          <value>AcDbEntity:AcDbHatch</value>
        </Data>
        <Data name="EntityHandle">
          <value>9A</value>
        </Data>
        <Data name="Text">
          <value>SOLID</value>
        </Data>
      </ExtendedData>
      <Polygon>
        <outerBoundaryIs>
          <LinearRing>
            <tessellate>1</tessellate>
            <coordinates>
              75.04717,15.353903,0
              75.047032,15.353865,0
              75.047053,15.353787,0
              75.047191,15.353825,0
              75.04717,15.353903,0
            </coordinates>
          </LinearRing>
        </outerBoundaryIs>
      </Polygon>
    </Placemark>
    <Placemark>
      <name>12</name>
      <description><![CDATA[description: <br>fid: 12<br>Layer: Layer 12<br>SubClasses: AcDbEntity:AcDbHatch<br>EntityHandle: 9C<br>Text: SOLID]]></description>
      <styleUrl>#poly-FF0000-1000-0</styleUrl>
      <ExtendedData>
        <Data name="description">
          <value/>
        </Data>
        <Data name="fid">
          <value>12</value>
        </Data>
        <Data name="Layer">
          <value>Layer 12</value>
        </Data>
        <Data name="SubClasses">
          <value>AcDbEntity:AcDbHatch</value>
        </Data>
        <Data name="EntityHandle">
          <value>9C</value>
        </Data>
        <Data name="Text">
          <value>SOLID</value>
        </Data>
      </ExtendedData>
      <Polygon>
        <outerBoundaryIs>
          <LinearRing>
            <tessellate>1</tessellate>
            <coordinates>
              75.047146,15.35399,0
              75.047007,15.353953,0
              75.047032,15.353865,0
              75.04717,15.353903,0
              75.047146,15.35399,0
            </coordinates>
          </LinearRing>
        </outerBoundaryIs>
      </Polygon>
    </Placemark>
    <Placemark>
      <name>13</name>
      <description><![CDATA[description: <br>fid: 13<br>Layer: Layer 12<br>SubClasses: AcDbEntity:AcDbHatch<br>EntityHandle: 9E<br>Text: SOLID]]></description>
      <styleUrl>#poly-FF0000-1000-0</styleUrl>
      <ExtendedData>
        <Data name="description">
          <value/>
        </Data>
        <Data name="fid">
          <value>13</value>
        </Data>
        <Data name="Layer">
          <value>Layer 12</value>
        </Data>
        <Data name="SubClasses">
          <value>AcDbEntity:AcDbHatch</value>
        </Data>
        <Data name="EntityHandle">
          <value>9E</value>
        </Data>
        <Data name="Text">
          <value>SOLID</value>
        </Data>
      </ExtendedData>
      <Polygon>
        <outerBoundaryIs>
          <LinearRing>
            <tessellate>1</tessellate>
            <coordinates>
              75.047307,15.35394,0
              75.047282,15.354027,0
              75.047146,15.35399,0
              75.04717,15.353903,0
              75.047307,15.35394,0
            </coordinates>
          </LinearRing>
        </outerBoundaryIs>
      </Polygon>
    </Placemark>
    <Placemark>
      <name>14</name>
      <description><![CDATA[description: <br>fid: 14<br>Layer: Layer 12<br>SubClasses: AcDbEntity:AcDbHatch<br>EntityHandle: A0<br>Text: SOLID]]></description>
      <styleUrl>#poly-FF0000-1000-0</styleUrl>
      <ExtendedData>
        <Data name="description">
          <value/>
        </Data>
        <Data name="fid">
          <value>14</value>
        </Data>
        <Data name="Layer">
          <value>Layer 12</value>
        </Data>
        <Data name="SubClasses">
          <value>AcDbEntity:AcDbHatch</value>
        </Data>
        <Data name="EntityHandle">
          <value>A0</value>
        </Data>
        <Data name="Text">
          <value>SOLID</value>
        </Data>
      </ExtendedData>
      <Polygon>
        <outerBoundaryIs>
          <LinearRing>
            <tessellate>1</tessellate>
            <coordinates>
              75.047328,15.353863,0
              75.047307,15.35394,0
              75.04717,15.353903,0
              75.047191,15.353825,0
              75.047328,15.353863,0
            </coordinates>
          </LinearRing>
        </outerBoundaryIs>
      </Polygon>
    </Placemark>
    <Placemark>
      <name>15</name>
      <description><![CDATA[description: <br>fid: 15<br>Layer: Layer 12<br>SubClasses: AcDbEntity:AcDbHatch<br>EntityHandle: A2<br>Text: SOLID]]></description>
      <styleUrl>#poly-FF0000-1000-0</styleUrl>
      <ExtendedData>
        <Data name="description">
          <value/>
        </Data>
        <Data name="fid">
          <value>15</value>
        </Data>
        <Data name="Layer">
          <value>Layer 12</value>
        </Data>
        <Data name="SubClasses">
          <value>AcDbEntity:AcDbHatch</value>
        </Data>
        <Data name="EntityHandle">
          <value>A2</value>
        </Data>
        <Data name="Text">
          <value>SOLID</value>
        </Data>
      </ExtendedData>
      <Polygon>
        <outerBoundaryIs>
          <LinearRing>
            <tessellate>1</tessellate>
            <coordinates>
              75.047525,15.354,0
              75.047389,15.353963,0
              75.047411,15.353885,0
              75.047547,15.353921,0
              75.047525,15.354,0
            </coordinates>
          </LinearRing>
        </outerBoundaryIs>
      </Polygon>
    </Placemark>
    <Placemark>
      <name>16</name>
      <description><![CDATA[description: <br>fid: 16<br>Layer: Layer 12<br>SubClasses: AcDbEntity:AcDbHatch<br>EntityHandle: A4<br>Text: SOLID]]></description>
      <styleUrl>#poly-FF0000-1000-0</styleUrl>
      <ExtendedData>
        <Data name="description">
          <value/>
        </Data>
        <Data name="fid">
          <value>16</value>
        </Data>
        <Data name="Layer">
          <value>Layer 12</value>
        </Data>
        <Data name="SubClasses">
          <value>AcDbEntity:AcDbHatch</value>
        </Data>
        <Data name="EntityHandle">
          <value>A4</value>
        </Data>
        <Data name="Text">
          <value>SOLID</value>
        </Data>
      </ExtendedData>
      <Polygon>
        <outerBoundaryIs>
          <LinearRing>
            <tessellate>1</tessellate>
            <coordinates>
              75.047502,15.354085,0
              75.047364,15.354048,0
              75.047389,15.353963,0
              75.047525,15.354,0
              75.047502,15.354085,0
            </coordinates>
          </LinearRing>
        </outerBoundaryIs>
      </Polygon>
    </Placemark>
    <Placemark>
      <name>17</name>
      <description><![CDATA[description: <br>fid: 17<br>Layer: Layer 12<br>SubClasses: AcDbEntity:AcDbHatch<br>EntityHandle: A6<br>Text: SOLID]]></description>
      <styleUrl>#poly-FF0000-1000-0</styleUrl>
      <ExtendedData>
        <Data name="description">
          <value/>
        </Data>
        <Data name="fid">
          <value>17</value>
        </Data>
        <Data name="Layer">
          <value>Layer 12</value>
        </Data>
        <Data name="SubClasses">
          <value>AcDbEntity:AcDbHatch</value>
        </Data>
        <Data name="EntityHandle">
          <value>A6</value>
        </Data>
        <Data name="Text">
          <value>SOLID</value>
        </Data>
      </ExtendedData>
      <Polygon>
        <outerBoundaryIs>
          <LinearRing>
            <tessellate>1</tessellate>
            <coordinates>
              75.047664,15.354038,0
              75.047639,15.354121,0
              75.047502,15.354085,0
              75.047525,15.354,0
              75.047664,15.354038,0
            </coordinates>
          </LinearRing>
        </outerBoundaryIs>
      </Polygon>
    </Placemark>
    <Placemark>
      <name>18</name>
      <description><![CDATA[description: <br>fid: 18<br>Layer: Layer 12<br>SubClasses: AcDbEntity:AcDbHatch<br>EntityHandle: A8<br>Text: SOLID]]></description>
      <styleUrl>#poly-FF0000-1000-0</styleUrl>
      <ExtendedData>
        <Data name="description">
          <value/>
        </Data>
        <Data name="fid">
          <value>18</value>
        </Data>
        <Data name="Layer">
          <value>Layer 12</value>
        </Data>
        <Data name="SubClasses">
          <value>AcDbEntity:AcDbHatch</value>
        </Data>
        <Data name="EntityHandle">
          <value>A8</value>
        </Data>
        <Data name="Text">
          <value>SOLID</value>
        </Data>
      </ExtendedData>
      <Polygon>
        <outerBoundaryIs>
          <LinearRing>
            <tessellate>1</tessellate>
            <coordinates>
              75.047688,15.353958,0
              75.047664,15.354038,0
              75.047525,15.354,0
              75.047547,15.353921,0
              75.047688,15.353958,0
            </coordinates>
          </LinearRing>
        </outerBoundaryIs>
      </Polygon>
    </Placemark>
    <Placemark>
      <name>19</name>
      <description><![CDATA[description: <br>fid: 19<br>Layer: Layer 12<br>SubClasses: AcDbEntity:AcDbHatch<br>EntityHandle: AA<br>Text: SOLID]]></description>
      <styleUrl>#poly-FF0000-1000-0</styleUrl>
      <ExtendedData>
        <Data name="description">
          <value/>
        </Data>
        <Data name="fid">
          <value>19</value>
        </Data>
        <Data name="Layer">
          <value>Layer 12</value>
        </Data>
        <Data name="SubClasses">
          <value>AcDbEntity:AcDbHatch</value>
        </Data>
        <Data name="EntityHandle">
          <value>AA</value>
        </Data>
        <Data name="Text">
          <value>SOLID</value>
        </Data>
      </ExtendedData>
      <Polygon>
        <outerBoundaryIs>
          <LinearRing>
            <tessellate>1</tessellate>
            <coordinates>
              75.047768,15.35398,0
              75.047906,15.354018,0
              75.047885,15.354098,0
              75.047746,15.35406,0
              75.047768,15.35398,0
            </coordinates>
          </LinearRing>
        </outerBoundaryIs>
      </Polygon>
    </Placemark>
    <Placemark>
      <name>20</name>
      <description><![CDATA[description: <br>fid: 20<br>Layer: Layer 12<br>SubClasses: AcDbEntity:AcDbHatch<br>EntityHandle: AC<br>Text: SOLID]]></description>
      <styleUrl>#poly-FF0000-1000-0</styleUrl>
      <ExtendedData>
        <Data name="description">
          <value/>
        </Data>
        <Data name="fid">
          <value>20</value>
        </Data>
        <Data name="Layer">
          <value>Layer 12</value>
        </Data>
        <Data name="SubClasses">
          <value>AcDbEntity:AcDbHatch</value>
        </Data>
        <Data name="EntityHandle">
          <value>AC</value>
        </Data>
        <Data name="Text">
          <value>SOLID</value>
        </Data>
      </ExtendedData>
      <Polygon>
        <outerBoundaryIs>
          <LinearRing>
            <tessellate>1</tessellate>
            <coordinates>
              75.047862,15.354181,0
              75.047722,15.354144,0
              75.047746,15.35406,0
              75.047885,15.354098,0
              75.047862,15.354181,0
            </coordinates>
          </LinearRing>
        </outerBoundaryIs>
      </Polygon>
    </Placemark>
    <Placemark>
      <name>21</name>
      <description><![CDATA[description: <br>fid: 21<br>Layer: Layer 12<br>SubClasses: AcDbEntity:AcDbHatch<br>EntityHandle: AE<br>Text: SOLID]]></description>
      <styleUrl>#poly-FF0000-1000-0</styleUrl>
      <ExtendedData>
        <Data name="description">
          <value/>
        </Data>
        <Data name="fid">
          <value>21</value>
        </Data>
        <Data name="Layer">
          <value>Layer 12</value>
        </Data>
        <Data name="SubClasses">
          <value>AcDbEntity:AcDbHatch</value>
        </Data>
        <Data name="EntityHandle">
          <value>AE</value>
        </Data>
        <Data name="Text">
          <value>SOLID</value>
        </Data>
      </ExtendedData>
      <Polygon>
        <outerBoundaryIs>
          <LinearRing>
            <tessellate>1</tessellate>
            <coordinates>
              75.048018,15.354136,0
              75.047994,15.354217,0
              75.047862,15.354181,0
              75.047885,15.354098,0
              75.048018,15.354136,0
            </coordinates>
          </LinearRing>
        </outerBoundaryIs>
      </Polygon>
    </Placemark>
    <Placemark>
      <name>22</name>
      <description><![CDATA[description: <br>fid: 22<br>Layer: Layer 12<br>SubClasses: AcDbEntity:AcDbHatch<br>EntityHandle: B0<br>Text: SOLID]]></description>
      <styleUrl>#poly-FF0000-1000-0</styleUrl>
      <ExtendedData>
        <Data name="description">
          <value/>
        </Data>
        <Data name="fid">
          <value>22</value>
        </Data>
        <Data name="Layer">
          <value>Layer 12</value>
        </Data>
        <Data name="SubClasses">
          <value>AcDbEntity:AcDbHatch</value>
        </Data>
        <Data name="EntityHandle">
          <value>B0</value>
        </Data>
        <Data name="Text">
          <value>SOLID</value>
        </Data>
      </ExtendedData>
      <Polygon>
        <outerBoundaryIs>
          <LinearRing>
            <tessellate>1</tessellate>
            <coordinates>
              75.048041,15.354055,0
              75.048018,15.354136,0
              75.047885,15.354098,0
              75.047906,15.354018,0
              75.048041,15.354055,0
            </coordinates>
          </LinearRing>
        </outerBoundaryIs>
      </Polygon>
    </Placemark>
    <Placemark>
      <name>23</name>
      <description><![CDATA[description: <br>fid: 23<br>Layer: Layer 12<br>SubClasses: AcDbEntity:AcDbHatch<br>EntityHandle: B2<br>Text: SOLID]]></description>
      <styleUrl>#poly-FF0000-1000-0</styleUrl>
      <ExtendedData>
        <Data name="description">
          <value/>
        </Data>
        <Data name="fid">
          <value>23</value>
        </Data>
        <Data name="Layer">
          <value>Layer 12</value>
        </Data>
        <Data name="SubClasses">
          <value>AcDbEntity:AcDbHatch</value>
        </Data>
        <Data name="EntityHandle">
          <value>B2</value>
        </Data>
        <Data name="Text">
          <value>SOLID</value>
        </Data>
      </ExtendedData>
      <Polygon>
        <outerBoundaryIs>
          <LinearRing>
            <tessellate>1</tessellate>
            <coordinates>
              75.04824,15.354192,0
              75.048102,15.354155,0
              75.048125,15.354075,0
              75.048263,15.354113,0
              75.04824,15.354192,0
            </coordinates>
          </LinearRing>
        </outerBoundaryIs>
      </Polygon>
    </Placemark>
    <Placemark>
      <name>24</name>
      <description><![CDATA[description: <br>fid: 24<br>Layer: Layer 12<br>SubClasses: AcDbEntity:AcDbHatch<br>EntityHandle: B4<br>Text: SOLID]]></description>
      <styleUrl>#poly-FF0000-1000-0</styleUrl>
      <ExtendedData>
        <Data name="description">
          <value/>
        </Data>
        <Data name="fid">
          <value>24</value>
        </Data>
        <Data name="Layer">
          <value>Layer 12</value>
        </Data>
        <Data name="SubClasses">
          <value>AcDbEntity:AcDbHatch</value>
        </Data>
        <Data name="EntityHandle">
          <value>B4</value>
        </Data>
        <Data name="Text">
          <value>SOLID</value>
        </Data>
      </ExtendedData>
      <Polygon>
        <outerBoundaryIs>
          <LinearRing>
            <tessellate>1</tessellate>
            <coordinates>
              75.048217,15.354276,0
              75.048078,15.354239,0
              75.048102,15.354155,0
              75.04824,15.354192,0
              75.048217,15.354276,0
            </coordinates>
          </LinearRing>
        </outerBoundaryIs>
      </Polygon>
    </Placemark>
    <Placemark>
      <name>25</name>
      <description><![CDATA[description: <br>fid: 25<br>Layer: Layer 12<br>SubClasses: AcDbEntity:AcDbHatch<br>EntityHandle: B6<br>Text: SOLID]]></description>
      <styleUrl>#poly-FF0000-1000-0</styleUrl>
      <ExtendedData>
        <Data name="description">
          <value/>
        </Data>
        <Data name="fid">
          <value>25</value>
        </Data>
        <Data name="Layer">
          <value>Layer 12</value>
        </Data>
        <Data name="SubClasses">
          <value>AcDbEntity:AcDbHatch</value>
        </Data>
        <Data name="EntityHandle">
          <value>B6</value>
        </Data>
        <Data name="Text">
          <value>SOLID</value>
        </Data>
      </ExtendedData>
      <Polygon>
        <outerBoundaryIs>
          <LinearRing>
            <tessellate>1</tessellate>
            <coordinates>
              75.048393,15.354234,0
              75.048369,15.354317,0
              75.048217,15.354276,0
              75.04824,15.354192,0
              75.048393,15.354234,0
            </coordinates>
          </LinearRing>
        </outerBoundaryIs>
      </Polygon>
    </Placemark>
    <Placemark>
      <name>26</name>
      <description><![CDATA[description: <br>fid: 26<br>Layer: Layer 12<br>SubClasses: AcDbEntity:AcDbHatch<br>EntityHandle: B8<br>Text: SOLID]]></description>
      <styleUrl>#poly-FF0000-1000-0</styleUrl>
      <ExtendedData>
        <Data name="description">
          <value/>
        </Data>
        <Data name="fid">
          <value>26</value>
        </Data>
        <Data name="Layer">
          <value>Layer 12</value>
        </Data>
        <Data name="SubClasses">
          <value>AcDbEntity:AcDbHatch</value>
        </Data>
        <Data name="EntityHandle">
          <value>B8</value>
        </Data>
        <Data name="Text">
          <value>SOLID</value>
        </Data>
      </ExtendedData>
      <Polygon>
        <outerBoundaryIs>
          <LinearRing>
            <tessellate>1</tessellate>
            <coordinates>
              75.048416,15.354156,0
              75.048393,15.354234,0
              75.04824,15.354192,0
              75.048263,15.354113,0
              75.048416,15.354156,0
            </coordinates>
          </LinearRing>
        </outerBoundaryIs>
      </Polygon>
    </Placemark>
    <Placemark>
      <name>27</name>
      <description><![CDATA[description: <br>fid: 27<br>Layer: Layer 12<br>SubClasses: AcDbEntity:AcDbHatch<br>EntityHandle: BA<br>Text: SOLID]]></description>
      <styleUrl>#poly-FF0000-1000-0</styleUrl>
      <ExtendedData>
        <Data name="description">
          <value/>
        </Data>
        <Data name="fid">
          <value>27</value>
        </Data>
        <Data name="Layer">
          <value>Layer 12</value>
        </Data>
        <Data name="SubClasses">
          <value>AcDbEntity:AcDbHatch</value>
        </Data>
        <Data name="EntityHandle">
          <value>BA</value>
        </Data>
        <Data name="Text">
          <value>SOLID</value>
        </Data>
      </ExtendedData>
      <Polygon>
        <outerBoundaryIs>
          <LinearRing>
            <tessellate>1</tessellate>
            <coordinates>
              75.049324,15.354171,0
              75.049332,15.354315,0
              75.049222,15.354286,0
              75.049262,15.354154,0
              75.049324,15.354171,0
            </coordinates>
          </LinearRing>
        </outerBoundaryIs>
      </Polygon>
    </Placemark>
    <Placemark>
      <name>28</name>
      <description><![CDATA[description: <br>fid: 28<br>Layer: Layer 12<br>SubClasses: AcDbEntity:AcDbHatch<br>EntityHandle: BC<br>Text: SOLID]]></description>
      <styleUrl>#poly-FF0000-1000-0</styleUrl>
      <ExtendedData>
        <Data name="description">
          <value/>
        </Data>
        <Data name="fid">
          <value>28</value>
        </Data>
        <Data name="Layer">
          <value>Layer 12</value>
        </Data>
        <Data name="SubClasses">
          <value>AcDbEntity:AcDbHatch</value>
        </Data>
        <Data name="EntityHandle">
          <value>BC</value>
        </Data>
        <Data name="Text">
          <value>SOLID</value>
        </Data>
      </ExtendedData>
      <Polygon>
        <outerBoundaryIs>
          <LinearRing>
            <tessellate>1</tessellate>
            <coordinates>
              75.04914,15.354264,0
              75.049058,15.354242,0
              75.049095,15.35411,0
              75.049179,15.354132,0
              75.04914,15.354264,0
            </coordinates>
          </LinearRing>
        </outerBoundaryIs>
      </Polygon>
    </Placemark>
    <Placemark>
      <name>29</name>
      <description><![CDATA[description: <br>fid: 29<br>Layer: Layer 12<br>SubClasses: AcDbEntity:AcDbHatch<br>EntityHandle: BE<br>Text: SOLID]]></description>
      <styleUrl>#poly-FF0000-1000-0</styleUrl>
      <ExtendedData>
        <Data name="description">
          <value/>
        </Data>
        <Data name="fid">
          <value>29</value>
        </Data>
        <Data name="Layer">
          <value>Layer 12</value>
        </Data>
        <Data name="SubClasses">
          <value>AcDbEntity:AcDbHatch</value>
        </Data>
        <Data name="EntityHandle">
          <value>BE</value>
        </Data>
        <Data name="Text">
          <value>SOLID</value>
        </Data>
      </ExtendedData>
      <Polygon>
        <outerBoundaryIs>
          <LinearRing>
            <tessellate>1</tessellate>
            <coordinates>
              75.049179,15.354132,0
              75.049262,15.354154,0
              75.049222,15.354286,0
              75.04914,15.354264,0
              75.049179,15.354132,0
            </coordinates>
          </LinearRing>
        </outerBoundaryIs>
      </Polygon>
    </Placemark>
    <Placemark>
      <name>30</name>
      <description><![CDATA[description: <br>fid: 30<br>Layer: Layer 12<br>SubClasses: AcDbEntity:AcDbHatch<br>EntityHandle: C0<br>Text: SOLID]]></description>
      <styleUrl>#poly-FF0000-1000-0</styleUrl>
      <ExtendedData>
        <Data name="description">
          <value/>
        </Data>
        <Data name="fid">
          <value>30</value>
        </Data>
        <Data name="Layer">
          <value>Layer 12</value>
        </Data>
        <Data name="SubClasses">
          <value>AcDbEntity:AcDbHatch</value>
        </Data>
        <Data name="EntityHandle">
          <value>C0</value>
        </Data>
        <Data name="Text">
          <value>SOLID</value>
        </Data>
      </ExtendedData>
      <Polygon>
        <outerBoundaryIs>
          <LinearRing>
            <tessellate>1</tessellate>
            <coordinates>
              75.049058,15.354242,0
              75.048999,15.354226,0
              75.048971,15.354077,0
              75.049095,15.35411,0
              75.049058,15.354242,0
            </coordinates>
          </LinearRing>
        </outerBoundaryIs>
      </Polygon>
    </Placemark>
    <Placemark>
      <name>31</name>
      <description><![CDATA[description: <br>fid: 31<br>Layer: Layer 12<br>SubClasses: AcDbEntity:AcDbHatch<br>EntityHandle: C2<br>Text: SOLID]]></description>
      <styleUrl>#poly-FF0000-1000-0</styleUrl>
      <ExtendedData>
        <Data name="description">
          <value/>
        </Data>
        <Data name="fid">
          <value>31</value>
        </Data>
        <Data name="Layer">
          <value>Layer 12</value>
        </Data>
        <Data name="SubClasses">
          <value>AcDbEntity:AcDbHatch</value>
        </Data>
        <Data name="EntityHandle">
          <value>C2</value>
        </Data>
        <Data name="Text">
          <value>SOLID</value>
        </Data>
      </ExtendedData>
      <Polygon>
        <outerBoundaryIs>
          <LinearRing>
            <tessellate>1</tessellate>
            <coordinates>
              75.048879,15.354051,0
              75.048906,15.354201,0
              75.04875,15.354159,0
              75.048792,15.354027,0
              75.048879,15.354051,0
            </coordinates>
          </LinearRing>
        </outerBoundaryIs>
      </Polygon>
    </Placemark>
    <Placemark>
      <name>32</name>
      <description><![CDATA[description: <br>fid: 32<br>Layer: Layer 12<br>SubClasses: AcDbEntity:AcDbHatch<br>EntityHandle: C4<br>Text: SOLID]]></description>
      <styleUrl>#poly-FF0000-1000-0</styleUrl>
      <ExtendedData>
        <Data name="description">
          <value/>
        </Data>
        <Data name="fid">
          <value>32</value>
        </Data>
        <Data name="Layer">
          <value>Layer 12</value>
        </Data>
        <Data name="SubClasses">
          <value>AcDbEntity:AcDbHatch</value>
        </Data>
        <Data name="EntityHandle">
          <value>C4</value>
        </Data>
        <Data name="Text">
          <value>SOLID</value>
        </Data>
      </ExtendedData>
      <Polygon>
        <outerBoundaryIs>
          <LinearRing>
            <tessellate>1</tessellate>
            <coordinates>
              75.048792,15.354027,0
              75.04875,15.354159,0
              75.048666,15.354137,0
              75.048709,15.354005,0
              75.048792,15.354027,0
            </coordinates>
          </LinearRing>
        </outerBoundaryIs>
      </Polygon>
    </Placemark>
    <Placemark>
      <name>33</name>
      <description><![CDATA[description: <br>fid: 33<br>Layer: Layer 12<br>SubClasses: AcDbEntity:AcDbHatch<br>EntityHandle: C6<br>Text: SOLID]]></description>
      <styleUrl>#poly-FF0000-1000-0</styleUrl>
      <ExtendedData>
        <Data name="description">
          <value/>
        </Data>
        <Data name="fid">
          <value>33</value>
        </Data>
        <Data name="Layer">
          <value>Layer 12</value>
        </Data>
        <Data name="SubClasses">
          <value>AcDbEntity:AcDbHatch</value>
        </Data>
        <Data name="EntityHandle">
          <value>C6</value>
        </Data>
        <Data name="Text">
          <value>SOLID</value>
        </Data>
      </ExtendedData>
      <Polygon>
        <outerBoundaryIs>
          <LinearRing>
            <tessellate>1</tessellate>
            <coordinates>
              75.048709,15.354005,0
              75.048666,15.354137,0
              75.048586,15.354115,0
              75.048624,15.353982,0
              75.048709,15.354005,0
            </coordinates>
          </LinearRing>
        </outerBoundaryIs>
      </Polygon>
    </Placemark>
    <Placemark>
      <name>34</name>
      <description><![CDATA[description: <br>fid: 34<br>Layer: Layer 12<br>SubClasses: AcDbEntity:AcDbHatch<br>EntityHandle: C8<br>Text: SOLID]]></description>
      <styleUrl>#poly-FF0000-1000-0</styleUrl>
      <ExtendedData>
        <Data name="description">
          <value/>
        </Data>
        <Data name="fid">
          <value>34</value>
        </Data>
        <Data name="Layer">
          <value>Layer 12</value>
        </Data>
        <Data name="SubClasses">
          <value>AcDbEntity:AcDbHatch</value>
        </Data>
        <Data name="EntityHandle">
          <value>C8</value>
        </Data>
        <Data name="Text">
          <value>SOLID</value>
        </Data>
      </ExtendedData>
      <Polygon>
        <outerBoundaryIs>
          <LinearRing>
            <tessellate>1</tessellate>
            <coordinates>
              75.048624,15.353982,0
              75.048586,15.354115,0
              75.048505,15.354093,0
              75.048542,15.35396,0
              75.048624,15.353982,0
            </coordinates>
          </LinearRing>
        </outerBoundaryIs>
      </Polygon>
    </Placemark>
    <Placemark>
      <name>35</name>
      <description><![CDATA[description: <br>fid: 35<br>Layer: Layer 12<br>SubClasses: AcDbEntity:AcDbHatch<br>EntityHandle: CA<br>Text: SOLID]]></description>
      <styleUrl>#poly-FF0000-1000-0</styleUrl>
      <ExtendedData>
        <Data name="description">
          <value/>
        </Data>
        <Data name="fid">
          <value>35</value>
        </Data>
        <Data name="Layer">
          <value>Layer 12</value>
        </Data>
        <Data name="SubClasses">
          <value>AcDbEntity:AcDbHatch</value>
        </Data>
        <Data name="EntityHandle">
          <value>CA</value>
        </Data>
        <Data name="Text">
          <value>SOLID</value>
        </Data>
      </ExtendedData>
      <Polygon>
        <outerBoundaryIs>
          <LinearRing>
            <tessellate>1</tessellate>
            <coordinates>
              75.048542,15.35396,0
              75.048505,15.354093,0
              75.048418,15.35407,0
              75.04846,15.353938,0
              75.048542,15.35396,0
            </coordinates>
          </LinearRing>
        </outerBoundaryIs>
      </Polygon>
    </Placemark>
    <Placemark>
      <name>36</name>
      <description><![CDATA[description: <br>fid: 36<br>Layer: Layer 12<br>SubClasses: AcDbEntity:AcDbHatch<br>EntityHandle: CC<br>Text: SOLID]]></description>
      <styleUrl>#poly-FF0000-1000-0</styleUrl>
      <ExtendedData>
        <Data name="description">
          <value/>
        </Data>
        <Data name="fid">
          <value>36</value>
        </Data>
        <Data name="Layer">
          <value>Layer 12</value>
        </Data>
        <Data name="SubClasses">
          <value>AcDbEntity:AcDbHatch</value>
        </Data>
        <Data name="EntityHandle">
          <value>CC</value>
        </Data>
        <Data name="Text">
          <value>SOLID</value>
        </Data>
      </ExtendedData>
      <Polygon>
        <outerBoundaryIs>
          <LinearRing>
            <tessellate>1</tessellate>
            <coordinates>
              75.04846,15.353938,0
              75.048418,15.35407,0
              75.048338,15.354048,0
              75.048376,15.353915,0
              75.04846,15.353938,0
            </coordinates>
          </LinearRing>
        </outerBoundaryIs>
      </Polygon>
    </Placemark>
    <Placemark>
      <name>37</name>
      <description><![CDATA[description: <br>fid: 37<br>Layer: Layer 12<br>SubClasses: AcDbEntity:AcDbHatch<br>EntityHandle: CE<br>Text: SOLID]]></description>
      <styleUrl>#poly-FF0000-1000-0</styleUrl>
      <ExtendedData>
        <Data name="description">
          <value/>
        </Data>
        <Data name="fid">
          <value>37</value>
        </Data>
        <Data name="Layer">
          <value>Layer 12</value>
        </Data>
        <Data name="SubClasses">
          <value>AcDbEntity:AcDbHatch</value>
        </Data>
        <Data name="EntityHandle">
          <value>CE</value>
        </Data>
        <Data name="Text">
          <value>SOLID</value>
        </Data>
      </ExtendedData>
      <Polygon>
        <outerBoundaryIs>
          <LinearRing>
            <tessellate>1</tessellate>
            <coordinates>
              75.048376,15.353915,0
              75.048338,15.354048,0
              75.048257,15.354027,0
              75.048295,15.353894,0
              75.048376,15.353915,0
            </coordinates>
          </LinearRing>
        </outerBoundaryIs>
      </Polygon>
    </Placemark>
    <Placemark>
      <name>38</name>
      <description><![CDATA[description: <br>fid: 38<br>Layer: Layer 12<br>SubClasses: AcDbEntity:AcDbHatch<br>EntityHandle: D0<br>Text: SOLID]]></description>
      <styleUrl>#poly-FF0000-1000-0</styleUrl>
      <ExtendedData>
        <Data name="description">
          <value/>
        </Data>
        <Data name="fid">
          <value>38</value>
        </Data>
        <Data name="Layer">
          <value>Layer 12</value>
        </Data>
        <Data name="SubClasses">
          <value>AcDbEntity:AcDbHatch</value>
        </Data>
        <Data name="EntityHandle">
          <value>D0</value>
        </Data>
        <Data name="Text">
          <value>SOLID</value>
        </Data>
      </ExtendedData>
      <Polygon>
        <outerBoundaryIs>
          <LinearRing>
            <tessellate>1</tessellate>
            <coordinates>
              75.048295,15.353894,0
              75.048257,15.354027,0
              75.048175,15.354004,0
              75.048211,15.353871,0
              75.048295,15.353894,0
            </coordinates>
          </LinearRing>
        </outerBoundaryIs>
      </Polygon>
    </Placemark>
    <Placemark>
      <name>39</name>
      <description><![CDATA[description: <br>fid: 39<br>Layer: Layer 12<br>SubClasses: AcDbEntity:AcDbHatch<br>EntityHandle: D2<br>Text: SOLID]]></description>
      <styleUrl>#poly-FF0000-1000-0</styleUrl>
      <ExtendedData>
        <Data name="description">
          <value/>
        </Data>
        <Data name="fid">
          <value>39</value>
        </Data>
        <Data name="Layer">
          <value>Layer 12</value>
        </Data>
        <Data name="SubClasses">
          <value>AcDbEntity:AcDbHatch</value>
        </Data>
        <Data name="EntityHandle">
          <value>D2</value>
        </Data>
        <Data name="Text">
          <value>SOLID</value>
        </Data>
      </ExtendedData>
      <Polygon>
        <outerBoundaryIs>
          <LinearRing>
            <tessellate>1</tessellate>
            <coordinates>
              75.048211,15.353871,0
              75.048175,15.354004,0
              75.048092,15.353982,0
              75.048132,15.353849,0
              75.048211,15.353871,0
            </coordinates>
          </LinearRing>
        </outerBoundaryIs>
      </Polygon>
    </Placemark>
    <Placemark>
      <name>40</name>
      <description><![CDATA[description: <br>fid: 40<br>Layer: Layer 12<br>SubClasses: AcDbEntity:AcDbHatch<br>EntityHandle: D4<br>Text: SOLID]]></description>
      <styleUrl>#poly-FF0000-1000-0</styleUrl>
      <ExtendedData>
        <Data name="description">
          <value/>
        </Data>
        <Data name="fid">
          <value>40</value>
        </Data>
        <Data name="Layer">
          <value>Layer 12</value>
        </Data>
        <Data name="SubClasses">
          <value>AcDbEntity:AcDbHatch</value>
        </Data>
        <Data name="EntityHandle">
          <value>D4</value>
        </Data>
        <Data name="Text">
          <value>SOLID</value>
        </Data>
      </ExtendedData>
      <Polygon>
        <outerBoundaryIs>
          <LinearRing>
            <tessellate>1</tessellate>
            <coordinates>
              75.048132,15.353849,0
              75.048092,15.353982,0
              75.048012,15.35396,0
              75.048049,15.353827,0
              75.048132,15.353849,0
            </coordinates>
          </LinearRing>
        </outerBoundaryIs>
      </Polygon>
    </Placemark>
    <Placemark>
      <name>41</name>
      <description><![CDATA[description: <br>fid: 41<br>Layer: Layer 12<br>SubClasses: AcDbEntity:AcDbHatch<br>EntityHandle: D6<br>Text: SOLID]]></description>
      <styleUrl>#poly-FF0000-1000-0</styleUrl>
      <ExtendedData>
        <Data name="description">
          <value/>
        </Data>
        <Data name="fid">
          <value>41</value>
        </Data>
        <Data name="Layer">
          <value>Layer 12</value>
        </Data>
        <Data name="SubClasses">
          <value>AcDbEntity:AcDbHatch</value>
        </Data>
        <Data name="EntityHandle">
          <value>D6</value>
        </Data>
        <Data name="Text">
          <value>SOLID</value>
        </Data>
      </ExtendedData>
      <Polygon>
        <outerBoundaryIs>
          <LinearRing>
            <tessellate>1</tessellate>
            <coordinates>
              75.048049,15.353827,0
              75.048012,15.35396,0
              75.047925,15.353937,0
              75.047965,15.353805,0
              75.048049,15.353827,0
            </coordinates>
          </LinearRing>
        </outerBoundaryIs>
      </Polygon>
    </Placemark>
    <Placemark>
      <name>42</name>
      <description><![CDATA[description: <br>fid: 42<br>Layer: Layer 12<br>SubClasses: AcDbEntity:AcDbHatch<br>EntityHandle: D8<br>Text: SOLID]]></description>
      <styleUrl>#poly-FF0000-1000-0</styleUrl>
      <ExtendedData>
        <Data name="description">
          <value/>
        </Data>
        <Data name="fid">
          <value>42</value>
        </Data>
        <Data name="Layer">
          <value>Layer 12</value>
        </Data>
        <Data name="SubClasses">
          <value>AcDbEntity:AcDbHatch</value>
        </Data>
        <Data name="EntityHandle">
          <value>D8</value>
        </Data>
        <Data name="Text">
          <value>SOLID</value>
        </Data>
      </ExtendedData>
      <Polygon>
        <outerBoundaryIs>
          <LinearRing>
            <tessellate>1</tessellate>
            <coordinates>
              75.047965,15.353805,0
              75.047925,15.353937,0
              75.047844,15.353915,0
              75.047883,15.353782,0
              75.047965,15.353805,0
            </coordinates>
          </LinearRing>
        </outerBoundaryIs>
      </Polygon>
    </Placemark>
    <Placemark>
      <name>43</name>
      <description><![CDATA[description: <br>fid: 43<br>Layer: Layer 12<br>SubClasses: AcDbEntity:AcDbHatch<br>EntityHandle: DA<br>Text: SOLID]]></description>
      <styleUrl>#poly-FF0000-1000-0</styleUrl>
      <ExtendedData>
        <Data name="description">
          <value/>
        </Data>
        <Data name="fid">
          <value>43</value>
        </Data>
        <Data name="Layer">
          <value>Layer 12</value>
        </Data>
        <Data name="SubClasses">
          <value>AcDbEntity:AcDbHatch</value>
        </Data>
        <Data name="EntityHandle">
          <value>DA</value>
        </Data>
        <Data name="Text">
          <value>SOLID</value>
        </Data>
      </ExtendedData>
      <Polygon>
        <outerBoundaryIs>
          <LinearRing>
            <tessellate>1</tessellate>
            <coordinates>
              75.047883,15.353782,0
              75.047844,15.353915,0
              75.047763,15.353893,0
              75.047802,15.353761,0
              75.047883,15.353782,0
            </coordinates>
          </LinearRing>
        </outerBoundaryIs>
      </Polygon>
    </Placemark>
    <Placemark>
      <name>44</name>
      <description><![CDATA[description: <br>fid: 44<br>Layer: Layer 12<br>SubClasses: AcDbEntity:AcDbHatch<br>EntityHandle: DC<br>Text: SOLID]]></description>
      <styleUrl>#poly-FF0000-1000-0</styleUrl>
      <ExtendedData>
        <Data name="description">
          <value/>
        </Data>
        <Data name="fid">
          <value>44</value>
        </Data>
        <Data name="Layer">
          <value>Layer 12</value>
        </Data>
        <Data name="SubClasses">
          <value>AcDbEntity:AcDbHatch</value>
        </Data>
        <Data name="EntityHandle">
          <value>DC</value>
        </Data>
        <Data name="Text">
          <value>SOLID</value>
        </Data>
      </ExtendedData>
      <Polygon>
        <outerBoundaryIs>
          <LinearRing>
            <tessellate>1</tessellate>
            <coordinates>
              75.047802,15.353761,0
              75.047763,15.353893,0
              75.047682,15.353872,0
              75.047719,15.353738,0
              75.047802,15.353761,0
            </coordinates>
          </LinearRing>
        </outerBoundaryIs>
      </Polygon>
    </Placemark>
    <Placemark>
      <name>45</name>
      <description><![CDATA[description: <br>fid: 45<br>Layer: Layer 12<br>SubClasses: AcDbEntity:AcDbHatch<br>EntityHandle: DE<br>Text: SOLID]]></description>
      <styleUrl>#poly-FF0000-1000-0</styleUrl>
      <ExtendedData>
        <Data name="description">
          <value/>
        </Data>
        <Data name="fid">
          <value>45</value>
        </Data>
        <Data name="Layer">
          <value>Layer 12</value>
        </Data>
        <Data name="SubClasses">
          <value>AcDbEntity:AcDbHatch</value>
        </Data>
        <Data name="EntityHandle">
          <value>DE</value>
        </Data>
        <Data name="Text">
          <value>SOLID</value>
        </Data>
      </ExtendedData>
      <Polygon>
        <outerBoundaryIs>
          <LinearRing>
            <tessellate>1</tessellate>
            <coordinates>
              75.047719,15.353738,0
              75.047682,15.353872,0
              75.047599,15.353849,0
              75.047636,15.353716,0
              75.047719,15.353738,0
            </coordinates>
          </LinearRing>
        </outerBoundaryIs>
      </Polygon>
    </Placemark>
    <Placemark>
      <name>46</name>
      <description><![CDATA[description: <br>fid: 46<br>Layer: Layer 12<br>SubClasses: AcDbEntity:AcDbHatch<br>EntityHandle: E0<br>Text: SOLID]]></description>
      <styleUrl>#poly-FF0000-1000-0</styleUrl>
      <ExtendedData>
        <Data name="description">
          <value/>
        </Data>
        <Data name="fid">
          <value>46</value>
        </Data>
        <Data name="Layer">
          <value>Layer 12</value>
        </Data>
        <Data name="SubClasses">
          <value>AcDbEntity:AcDbHatch</value>
        </Data>
        <Data name="EntityHandle">
          <value>E0</value>
        </Data>
        <Data name="Text">
          <value>SOLID</value>
        </Data>
      </ExtendedData>
      <Polygon>
        <outerBoundaryIs>
          <LinearRing>
            <tessellate>1</tessellate>
            <coordinates>
              75.047636,15.353716,0
              75.047599,15.353849,0
              75.047513,15.353826,0
              75.047554,15.353694,0
              75.047636,15.353716,0
            </coordinates>
          </LinearRing>
        </outerBoundaryIs>
      </Polygon>
    </Placemark>
    <Placemark>
      <name>47</name>
      <description><![CDATA[description: <br>fid: 47<br>Layer: Layer 12<br>SubClasses: AcDbEntity:AcDbHatch<br>EntityHandle: E2<br>Text: SOLID]]></description>
      <styleUrl>#poly-FF0000-1000-0</styleUrl>
      <ExtendedData>
        <Data name="description">
          <value/>
        </Data>
        <Data name="fid">
          <value>47</value>
        </Data>
        <Data name="Layer">
          <value>Layer 12</value>
        </Data>
        <Data name="SubClasses">
          <value>AcDbEntity:AcDbHatch</value>
        </Data>
        <Data name="EntityHandle">
          <value>E2</value>
        </Data>
        <Data name="Text">
          <value>SOLID</value>
        </Data>
      </ExtendedData>
      <Polygon>
        <outerBoundaryIs>
          <LinearRing>
            <tessellate>1</tessellate>
            <coordinates>
              75.047513,15.353826,0
              75.047434,15.353805,0
              75.047471,15.353671,0
              75.047554,15.353694,0
              75.047513,15.353826,0
            </coordinates>
          </LinearRing>
        </outerBoundaryIs>
      </Polygon>
    </Placemark>
    <Placemark>
      <name>48</name>
      <description><![CDATA[description: <br>fid: 48<br>Layer: Layer 12<br>SubClasses: AcDbEntity:AcDbHatch<br>EntityHandle: E4<br>Text: SOLID]]></description>
      <styleUrl>#poly-FF0000-1000-0</styleUrl>
      <ExtendedData>
        <Data name="description">
          <value/>
        </Data>
        <Data name="fid">
          <value>48</value>
        </Data>
        <Data name="Layer">
          <value>Layer 12</value>
        </Data>
        <Data name="SubClasses">
          <value>AcDbEntity:AcDbHatch</value>
        </Data>
        <Data name="EntityHandle">
          <value>E4</value>
        </Data>
        <Data name="Text">
          <value>SOLID</value>
        </Data>
      </ExtendedData>
      <Polygon>
        <outerBoundaryIs>
          <LinearRing>
            <tessellate>1</tessellate>
            <coordinates>
              75.047388,15.353649,0
              75.04735,15.353782,0
              75.047241,15.353752,0
              75.047278,15.353619,0
              75.047388,15.353649,0
            </coordinates>
          </LinearRing>
        </outerBoundaryIs>
      </Polygon>
    </Placemark>
    <Placemark>
      <name>49</name>
      <description><![CDATA[description: <br>fid: 49<br>Layer: Layer 12<br>SubClasses: AcDbEntity:AcDbHatch<br>EntityHandle: E6<br>Text: SOLID]]></description>
      <styleUrl>#poly-FF0000-1000-0</styleUrl>
      <ExtendedData>
        <Data name="description">
          <value/>
        </Data>
        <Data name="fid">
          <value>49</value>
        </Data>
        <Data name="Layer">
          <value>Layer 12</value>
        </Data>
        <Data name="SubClasses">
          <value>AcDbEntity:AcDbHatch</value>
        </Data>
        <Data name="EntityHandle">
          <value>E6</value>
        </Data>
        <Data name="Text">
          <value>SOLID</value>
        </Data>
      </ExtendedData>
      <Polygon>
        <outerBoundaryIs>
          <LinearRing>
            <tessellate>1</tessellate>
            <coordinates>
              75.047278,15.353619,0
              75.047241,15.353752,0
              75.047156,15.353729,0
              75.047197,15.353597,0
              75.047278,15.353619,0
            </coordinates>
          </LinearRing>
        </outerBoundaryIs>
      </Polygon>
    </Placemark>
    <Placemark>
      <name>50</name>
      <description><![CDATA[description: <br>fid: 50<br>Layer: Layer 12<br>SubClasses: AcDbEntity:AcDbHatch<br>EntityHandle: E8<br>Text: SOLID]]></description>
      <styleUrl>#poly-FF0000-1000-0</styleUrl>
      <ExtendedData>
        <Data name="description">
          <value/>
        </Data>
        <Data name="fid">
          <value>50</value>
        </Data>
        <Data name="Layer">
          <value>Layer 12</value>
        </Data>
        <Data name="SubClasses">
          <value>AcDbEntity:AcDbHatch</value>
        </Data>
        <Data name="EntityHandle">
          <value>E8</value>
        </Data>
        <Data name="Text">
          <value>SOLID</value>
        </Data>
      </ExtendedData>
      <Polygon>
        <outerBoundaryIs>
          <LinearRing>
            <tessellate>1</tessellate>
            <coordinates>
              75.047197,15.353597,0
              75.047156,15.353729,0
              75.047076,15.353707,0
              75.047114,15.353574,0
              75.047197,15.353597,0
            </coordinates>
          </LinearRing>
        </outerBoundaryIs>
      </Polygon>
    </Placemark>
    <Placemark>
      <name>51</name>
      <description><![CDATA[description: <br>fid: 51<br>Layer: Layer 12<br>SubClasses: AcDbEntity:AcDbHatch<br>EntityHandle: EA<br>Text: SOLID]]></description>
      <styleUrl>#poly-FF0000-1000-0</styleUrl>
      <ExtendedData>
        <Data name="description">
          <value/>
        </Data>
        <Data name="fid">
          <value>51</value>
        </Data>
        <Data name="Layer">
          <value>Layer 12</value>
        </Data>
        <Data name="SubClasses">
          <value>AcDbEntity:AcDbHatch</value>
        </Data>
        <Data name="EntityHandle">
          <value>EA</value>
        </Data>
        <Data name="Text">
          <value>SOLID</value>
        </Data>
      </ExtendedData>
      <Polygon>
        <outerBoundaryIs>
          <LinearRing>
            <tessellate>1</tessellate>
            <coordinates>
              75.047114,15.353574,0
              75.047076,15.353707,0
              75.046993,15.353685,0
              75.047032,15.353552,0
              75.047114,15.353574,0
            </coordinates>
          </LinearRing>
        </outerBoundaryIs>
      </Polygon>
    </Placemark>
    <Placemark>
      <name>52</name>
      <description><![CDATA[description: <br>fid: 52<br>Layer: Layer 12<br>SubClasses: AcDbEntity:AcDbHatch<br>EntityHandle: EC<br>Text: SOLID]]></description>
      <styleUrl>#poly-FF0000-1000-0</styleUrl>
      <ExtendedData>
        <Data name="description">
          <value/>
        </Data>
        <Data name="fid">
          <value>52</value>
        </Data>
        <Data name="Layer">
          <value>Layer 12</value>
        </Data>
        <Data name="SubClasses">
          <value>AcDbEntity:AcDbHatch</value>
        </Data>
        <Data name="EntityHandle">
          <value>EC</value>
        </Data>
        <Data name="Text">
          <value>SOLID</value>
        </Data>
      </ExtendedData>
      <Polygon>
        <outerBoundaryIs>
          <LinearRing>
            <tessellate>1</tessellate>
            <coordinates>
              75.047032,15.353552,0
              75.046993,15.353685,0
              75.046912,15.353663,0
              75.046949,15.35353,0
              75.047032,15.353552,0
            </coordinates>
          </LinearRing>
        </outerBoundaryIs>
      </Polygon>
    </Placemark>
    <Placemark>
      <name>53</name>
      <description><![CDATA[description: <br>fid: 53<br>Layer: Layer 12<br>SubClasses: AcDbEntity:AcDbHatch<br>EntityHandle: EE<br>Text: SOLID]]></description>
      <styleUrl>#poly-FF0000-1000-0</styleUrl>
      <ExtendedData>
        <Data name="description">
          <value/>
        </Data>
        <Data name="fid">
          <value>53</value>
        </Data>
        <Data name="Layer">
          <value>Layer 12</value>
        </Data>
        <Data name="SubClasses">
          <value>AcDbEntity:AcDbHatch</value>
        </Data>
        <Data name="EntityHandle">
          <value>EE</value>
        </Data>
        <Data name="Text">
          <value>SOLID</value>
        </Data>
      </ExtendedData>
      <Polygon>
        <outerBoundaryIs>
          <LinearRing>
            <tessellate>1</tessellate>
            <coordinates>
              75.046949,15.35353,0
              75.046912,15.353663,0
              75.04683,15.353641,0
              75.046868,15.353508,0
              75.046949,15.35353,0
            </coordinates>
          </LinearRing>
        </outerBoundaryIs>
      </Polygon>
    </Placemark>
    <Placemark>
      <name>54</name>
      <description><![CDATA[description: <br>fid: 54<br>Layer: Layer 12<br>SubClasses: AcDbEntity:AcDbHatch<br>EntityHandle: F0<br>Text: SOLID]]></description>
      <styleUrl>#poly-FF0000-1000-0</styleUrl>
      <ExtendedData>
        <Data name="description">
          <value/>
        </Data>
        <Data name="fid">
          <value>54</value>
        </Data>
        <Data name="Layer">
          <value>Layer 12</value>
        </Data>
        <Data name="SubClasses">
          <value>AcDbEntity:AcDbHatch</value>
        </Data>
        <Data name="EntityHandle">
          <value>F0</value>
        </Data>
        <Data name="Text">
          <value>SOLID</value>
        </Data>
      </ExtendedData>
      <Polygon>
        <outerBoundaryIs>
          <LinearRing>
            <tessellate>1</tessellate>
            <coordinates>
              75.046868,15.353508,0
              75.04683,15.353641,0
              75.046748,15.353619,0
              75.046785,15.353485,0
              75.046868,15.353508,0
            </coordinates>
          </LinearRing>
        </outerBoundaryIs>
      </Polygon>
    </Placemark>
    <Placemark>
      <name>55</name>
      <description><![CDATA[description: <br>fid: 55<br>Layer: Layer 12<br>SubClasses: AcDbEntity:AcDbHatch<br>EntityHandle: F2<br>Text: SOLID]]></description>
      <styleUrl>#poly-FF0000-1000-0</styleUrl>
      <ExtendedData>
        <Data name="description">
          <value/>
        </Data>
        <Data name="fid">
          <value>55</value>
        </Data>
        <Data name="Layer">
          <value>Layer 12</value>
        </Data>
        <Data name="SubClasses">
          <value>AcDbEntity:AcDbHatch</value>
        </Data>
        <Data name="EntityHandle">
          <value>F2</value>
        </Data>
        <Data name="Text">
          <value>SOLID</value>
        </Data>
      </ExtendedData>
      <Polygon>
        <outerBoundaryIs>
          <LinearRing>
            <tessellate>1</tessellate>
            <coordinates>
              75.046785,15.353485,0
              75.046748,15.353619,0
              75.046665,15.353596,0
              75.046703,15.353463,0
              75.046785,15.353485,0
            </coordinates>
          </LinearRing>
        </outerBoundaryIs>
      </Polygon>
    </Placemark>
    <Placemark>
      <name>56</name>
      <description><![CDATA[description: <br>fid: 56<br>Layer: Layer 12<br>SubClasses: AcDbEntity:AcDbHatch<br>EntityHandle: F4<br>Text: SOLID]]></description>
      <styleUrl>#poly-FF0000-1000-0</styleUrl>
      <ExtendedData>
        <Data name="description">
          <value/>
        </Data>
        <Data name="fid">
          <value>56</value>
        </Data>
        <Data name="Layer">
          <value>Layer 12</value>
        </Data>
        <Data name="SubClasses">
          <value>AcDbEntity:AcDbHatch</value>
        </Data>
        <Data name="EntityHandle">
          <value>F4</value>
        </Data>
        <Data name="Text">
          <value>SOLID</value>
        </Data>
      </ExtendedData>
      <Polygon>
        <outerBoundaryIs>
          <LinearRing>
            <tessellate>1</tessellate>
            <coordinates>
              75.046703,15.353463,0
              75.046665,15.353596,0
              75.046583,15.353574,0
              75.04662,15.353441,0
              75.046703,15.353463,0
            </coordinates>
          </LinearRing>
        </outerBoundaryIs>
      </Polygon>
    </Placemark>
    <Placemark>
      <name>57</name>
      <description><![CDATA[description: <br>fid: 57<br>Layer: Layer 12<br>SubClasses: AcDbEntity:AcDbHatch<br>EntityHandle: F6<br>Text: SOLID]]></description>
      <styleUrl>#poly-FF0000-1000-0</styleUrl>
      <ExtendedData>
        <Data name="description">
          <value/>
        </Data>
        <Data name="fid">
          <value>57</value>
        </Data>
        <Data name="Layer">
          <value>Layer 12</value>
        </Data>
        <Data name="SubClasses">
          <value>AcDbEntity:AcDbHatch</value>
        </Data>
        <Data name="EntityHandle">
          <value>F6</value>
        </Data>
        <Data name="Text">
          <value>SOLID</value>
        </Data>
      </ExtendedData>
      <Polygon>
        <outerBoundaryIs>
          <LinearRing>
            <tessellate>1</tessellate>
            <coordinates>
              75.046536,15.353418,0
              75.04662,15.353441,0
              75.046583,15.353574,0
              75.046501,15.353552,0
              75.046536,15.353418,0
            </coordinates>
          </LinearRing>
        </outerBoundaryIs>
      </Polygon>
    </Placemark>
    <Placemark>
      <name>58</name>
      <description><![CDATA[description: <br>fid: 58<br>Layer: Layer 12<br>SubClasses: AcDbEntity:AcDbHatch<br>EntityHandle: F8<br>Text: SOLID]]></description>
      <styleUrl>#poly-FF0000-1000-0</styleUrl>
      <ExtendedData>
        <Data name="description">
          <value/>
        </Data>
        <Data name="fid">
          <value>58</value>
        </Data>
        <Data name="Layer">
          <value>Layer 12</value>
        </Data>
        <Data name="SubClasses">
          <value>AcDbEntity:AcDbHatch</value>
        </Data>
        <Data name="EntityHandle">
          <value>F8</value>
        </Data>
        <Data name="Text">
          <value>SOLID</value>
        </Data>
      </ExtendedData>
      <Polygon>
        <outerBoundaryIs>
          <LinearRing>
            <tessellate>1</tessellate>
            <coordinates>
              75.045887,15.353241,0
              75.04585,15.353374,0
              75.045769,15.353352,0
              75.045805,15.353219,0
              75.045887,15.353241,0
            </coordinates>
          </LinearRing>
        </outerBoundaryIs>
      </Polygon>
    </Placemark>
    <Placemark>
      <name>59</name>
      <description><![CDATA[description: <br>fid: 59<br>Layer: Layer 12<br>SubClasses: AcDbEntity:AcDbHatch<br>EntityHandle: FA<br>Text: SOLID]]></description>
      <styleUrl>#poly-FF0000-1000-0</styleUrl>
      <ExtendedData>
        <Data name="description">
          <value/>
        </Data>
        <Data name="fid">
          <value>59</value>
        </Data>
        <Data name="Layer">
          <value>Layer 12</value>
        </Data>
        <Data name="SubClasses">
          <value>AcDbEntity:AcDbHatch</value>
        </Data>
        <Data name="EntityHandle">
          <value>FA</value>
        </Data>
        <Data name="Text">
          <value>SOLID</value>
        </Data>
      </ExtendedData>
      <Polygon>
        <outerBoundaryIs>
          <LinearRing>
            <tessellate>1</tessellate>
            <coordinates>
              75.045805,15.353219,0
              75.045769,15.353352,0
              75.045685,15.353329,0
              75.045723,15.353196,0
              75.045805,15.353219,0
            </coordinates>
          </LinearRing>
        </outerBoundaryIs>
      </Polygon>
    </Placemark>
    <Placemark>
      <name>60</name>
      <description><![CDATA[description: <br>fid: 60<br>Layer: Layer 12<br>SubClasses: AcDbEntity:AcDbHatch<br>EntityHandle: FC<br>Text: SOLID]]></description>
      <styleUrl>#poly-FF0000-1000-0</styleUrl>
      <ExtendedData>
        <Data name="description">
          <value/>
        </Data>
        <Data name="fid">
          <value>60</value>
        </Data>
        <Data name="Layer">
          <value>Layer 12</value>
        </Data>
        <Data name="SubClasses">
          <value>AcDbEntity:AcDbHatch</value>
        </Data>
        <Data name="EntityHandle">
          <value>FC</value>
        </Data>
        <Data name="Text">
          <value>SOLID</value>
        </Data>
      </ExtendedData>
      <Polygon>
        <outerBoundaryIs>
          <LinearRing>
            <tessellate>1</tessellate>
            <coordinates>
              75.045723,15.353196,0
              75.045685,15.353329,0
              75.045603,15.353307,0
              75.045639,15.353173,0
              75.045723,15.353196,0
            </coordinates>
          </LinearRing>
        </outerBoundaryIs>
      </Polygon>
    </Placemark>
    <Placemark>
      <name>61</name>
      <description><![CDATA[description: <br>fid: 61<br>Layer: Layer 12<br>SubClasses: AcDbEntity:AcDbHatch<br>EntityHandle: FE<br>Text: SOLID]]></description>
      <styleUrl>#poly-FF0000-1000-0</styleUrl>
      <ExtendedData>
        <Data name="description">
          <value/>
        </Data>
        <Data name="fid">
          <value>61</value>
        </Data>
        <Data name="Layer">
          <value>Layer 12</value>
        </Data>
        <Data name="SubClasses">
          <value>AcDbEntity:AcDbHatch</value>
        </Data>
        <Data name="EntityHandle">
          <value>FE</value>
        </Data>
        <Data name="Text">
          <value>SOLID</value>
        </Data>
      </ExtendedData>
      <Polygon>
        <outerBoundaryIs>
          <LinearRing>
            <tessellate>1</tessellate>
            <coordinates>
              75.045639,15.353173,0
              75.045603,15.353307,0
              75.045519,15.353284,0
              75.045556,15.35315,0
              75.045639,15.353173,0
            </coordinates>
          </LinearRing>
        </outerBoundaryIs>
      </Polygon>
    </Placemark>
    <Placemark>
      <name>62</name>
      <description><![CDATA[description: <br>fid: 62<br>Layer: Layer 12<br>SubClasses: AcDbEntity:AcDbHatch<br>EntityHandle: 100<br>Text: SOLID]]></description>
      <styleUrl>#poly-FF0000-1000-0</styleUrl>
      <ExtendedData>
        <Data name="description">
          <value/>
        </Data>
        <Data name="fid">
          <value>62</value>
        </Data>
        <Data name="Layer">
          <value>Layer 12</value>
        </Data>
        <Data name="SubClasses">
          <value>AcDbEntity:AcDbHatch</value>
        </Data>
        <Data name="EntityHandle">
          <value>100</value>
        </Data>
        <Data name="Text">
          <value>SOLID</value>
        </Data>
      </ExtendedData>
      <Polygon>
        <outerBoundaryIs>
          <LinearRing>
            <tessellate>1</tessellate>
            <coordinates>
              75.045519,15.353284,0
              75.045372,15.353243,0
              75.045439,15.353118,0
              75.045556,15.35315,0
              75.045519,15.353284,0
            </coordinates>
          </LinearRing>
        </outerBoundaryIs>
      </Polygon>
    </Placemark>
    <Placemark>
      <name>Untitled Image Overlay</name>
      <description><![CDATA[description: <br>fid: <br>Layer: <br>SubClasses: <br>EntityHandle: <br>Text: ]]></description>
      <ExtendedData>
        <Data name="description">
          <value/>
        </Data>
        <Data name="fid">
          <value/>
        </Data>
        <Data name="Layer">
          <value/>
        </Data>
        <Data name="SubClasses">
          <value/>
        </Data>
        <Data name="EntityHandle">
          <value/>
        </Data>
        <Data name="Text">
          <value/>
        </Data>
      </ExtendedData>
    </Placemark>
    <Placemark>
      <name>Start</name>
      <description><![CDATA[description: <br>fid: <br>Layer: <br>SubClasses: <br>EntityHandle: <br>Text: ]]></description>
      <styleUrl>#icon-1899-DB4436</styleUrl>
      <ExtendedData>
        <Data name="description">
          <value/>
        </Data>
        <Data name="fid">
          <value/>
        </Data>
        <Data name="Layer">
          <value/>
        </Data>
        <Data name="SubClasses">
          <value/>
        </Data>
        <Data name="EntityHandle">
          <value/>
        </Data>
        <Data name="Text">
          <value/>
        </Data>
      </ExtendedData>
      <Point>
        <coordinates>
          75.045208,15.353733,0
        </coordinates>
      </Point>
    </Placemark>
  </Document>
</kml>
